{
    "links": {
        "self": "http://www.neowsapp.com/rest/v1/neo/3879189?api_key=iIulBulltgU6a56xZRHN4H3l9WmuAYTsLGpBGhQ2"
    },
    "id": "3879189",
    "neo_reference_id": "3879189",
    "name": "(2019 TR7)",
    "designation": "2019 TR7",
    "nasa_jpl_url": "http://ssd.jpl.nasa.gov/sbdb.cgi?sstr=3879189",
    "absolute_magnitude_h": 20.9,
    "estimated_diameter": {
        "kilometers": {
            "estimated_diameter_min": 0.1756123185,
            "estimated_diameter_max": 0.3926810818
        },
        "meters": {
            "estimated_diameter_min": 175.6123184804,
            "estimated_diameter_max": 392.6810818086
        },
        "miles": {
            "estimated_diameter_min": 0.1091204019,
            "estimated_diameter_max": 0.2440006365
        },
        "feet": {
            "estimated_diameter_min": 576.1559189633,
            "estimated_diameter_max": 1288.3238004408
        }
    },
    "is_potentially_hazardous_asteroid": false,
    "close_approach_data": [
        {
            "close_approach_date": "2019-11-19",
            "close_approach_date_full": "2019-Nov-19 10:13",
            "epoch_date_close_approach": 1574158380000,
            "relative_velocity": {
                "kilometers_per_second": "13.6197286431",
                "kilometers_per_hour": "49031.0231153119",
                "miles_per_hour": "30465.9710018448"
            },
            "miss_distance": {
                "astronomical": "0.4219972253",
                "lunar": "164.1569206417",
                "kilometers": "63129886.050790111",
                "miles": "39227092.2075250918"
            },
            "orbiting_body": "Earth"
        },
        {
            "close_approach_date": "2029-11-14",
            "close_approach_date_full": "2029-Nov-14 03:31",
            "epoch_date_close_approach": 1889321460000,
            "relative_velocity": {
                "kilometers_per_second": "12.4405375753",
                "kilometers_per_hour": "44785.935270905",
                "miles_per_hour": "27828.2385020799"
            },
            "miss_distance": {
                "astronomical": "0.364661453",
                "lunar": "141.853305217",
                "kilometers": "54552576.63990511",
                "miles": "33897399.280746118"
            },
            "orbiting_body": "Earth"
        }
    ],
    "orbital_data": {
        "orbit_id": "3",
        "orbit_determination_date": "2020-09-11 07:45:09",
        "first_observation_date": "2019-10-08",
        "last_observation_date": "2019-11-17",
        "data_arc_in_days": 40,
        "observations_used": 23,
        "orbit_uncertainty": "6",
        "minimum_orbit_intersection": ".357297",
        "jupiter_tisserand_invariant": "3.413",
        "epoch_osculation": "2459000.5",
        "eccentricity": ".4198871948762429",
        "semi_major_axis": "2.239000859600801",
        "inclination": "23.87163309186613",
        "ascending_node_longitude": "40.80623982915149",
        "orbital_period": "1223.713686373521",
        "perihelion_distance": "1.298873069337524",
        "perihelion_argument": "36.07817813560267",
        "aphelion_distance": "3.179128649864077",
        "perihelion_time": "2458818.184691212533",
        "mean_anomaly": "53.63469567623559",
        "mean_motion": ".2941864620856379",
        "equinox": "J2000",
        "orbit_class": {
            "orbit_class_type": "AMO",
            "orbit_class_description": "Near-Earth asteroid orbits similar to that of 1221 Amor",
            "orbit_class_range": "1.017 AU < q (perihelion) < 1.3 AU"
        }
    },
    "is_sentry_object": false
}